line1,line2,validFromUtcTime
1 00000U 00000E   26001.00000000  .00000000  00000-0  27772-4 0    01,2 00000  88.8733 120.3344 0010155 269.8492 345.0796 13.55281635    01,2026-01-01T00:00:00Z
1 00000U 00000E   26002.00000000  .00000000  00000-0  27772-4 0    02,2 00000  88.8736 120.2202 0010153 266.2968 184.6662 13.55256197    07,2026-01-02T00:00:00Z
